start=new Date('2022-03-18T00:00:00.000Z').valueOf();
sats=[{"MEAN_MOTION":"15.06378111","INCLINATION":"53.0547","TLE_LINE1":"1 48397U 21038AW  22076.22714096  .00021146  00000-0  14351-2 0  9993","REF_FRAME":"TEME","ELEMENT_SET_NO":"999","TIME_SYSTEM":"UTC","RCS_SIZE":"LARGE","LAUNCH_DATE":"2021-05-04","TLE_LINE2":"2 48397  53.0547  26.4689 0001428  59.0639 301.0491 15.06378111 49452","CENTER_NAME":"EARTH","OBJECT_TYPE":"PAYLOAD","CLASSIFICATION_TYPE":"U","MEAN_ELEMENT_THEORY":"SGP4","OBJECT_ID":"2021-038AW","DECAY_DATE":null,"PERIOD":"95.594","EPHEMERIS_TYPE":"0","SEMIMAJOR_AXIS":"6925.416","NORAD_CAT_ID":"48397","APOAPSIS":"548.270","EPOCH":"2022-03-17T05:27:04.978944","MEAN_MOTION_DOT":"0.00021146","GP_ID":"198965607","REV_AT_EPOCH":"4945","RA_OF_ASC_NODE":"26.4689","COUNTRY_CODE":"US","ARG_OF_PERICENTER":"59.0639","MEAN_ANOMALY":"301.0491","FILE":"3363104","PERIAPSIS":"546.292","ECCENTRICITY":"0.00014280","BSTAR":"0.00143510000000","SITE":"AFETR","OBJECT_NAME":"STARLINK-2590","MEAN_MOTION_DDOT":"0.0000000000000"},{"TLE_LINE1":"1 48398U 21038AX  22076.22344589  .00029858  00000-0  20146-2 0  9997","REF_FRAME":"TEME","ELEMENT_SET_NO":"999","INCLINATION":"53.0568","MEAN_MOTION":"15.06405863","LAUNCH_DATE":"2021-05-04","TLE_LINE2":"2 48398  53.0568  26.4873 0001546  53.2836 306.8295 15.06405863 49457","RCS_SIZE":"LARGE","TIME_SYSTEM":"UTC","OBJECT_TYPE":"PAYLOAD","CENTER_NAME":"EARTH","DECAY_DATE":null,"OBJECT_ID":"2021-038AX","CLASSIFICATION_TYPE":"U","MEAN_ELEMENT_THEORY":"SGP4","APOAPSIS":"548.266","NORAD_CAT_ID":"48398","SEMIMAJOR_AXIS":"6925.331","EPHEMERIS_TYPE":"0","PERIOD":"95.592","REV_AT_EPOCH":"4945","GP_ID":"198966858","EPOCH":"2022-03-17T05:21:45.724896","MEAN_MOTION_DOT":"0.00029858","PERIAPSIS":"546.125","BSTAR":"0.00201460000000","ECCENTRICITY":"0.00015460","MEAN_ANOMALY":"306.8295","FILE":"3363104","RA_OF_ASC_NODE":"26.4873","COUNTRY_CODE":"US","ARG_OF_PERICENTER":"53.2836","OBJECT_NAME":"STARLINK-2588","MEAN_MOTION_DDOT":"0.0000000000000","SITE":"AFETR"},{"MEAN_ANOMALY":"310.6878","FILE":"3363151","ARG_OF_PERICENTER":"49.4252","COUNTRY_CODE":"US","RA_OF_ASC_NODE":"23.5268","PERIAPSIS":"546.152","ECCENTRICITY":"0.00016200","BSTAR":"0.00022465000000","SITE":"AFETR","OBJECT_NAME":"STARLINK-2587","MEAN_MOTION_DDOT":"0.0000000000000","EPHEMERIS_TYPE":"0","PERIOD":"95.593","APOAPSIS":"548.396","SEMIMAJOR_AXIS":"6925.409","NORAD_CAT_ID":"48399","GP_ID":"198991763","EPOCH":"2022-03-17T21:11:51.371808","MEAN_MOTION_DOT":"0.00003064","REV_AT_EPOCH":"4954","CENTER_NAME":"EARTH","OBJECT_TYPE":"PAYLOAD","CLASSIFICATION_TYPE":"U","MEAN_ELEMENT_THEORY":"SGP4","OBJECT_ID":"2021-038AY","DECAY_DATE":null,"REF_FRAME":"TEME","TLE_LINE1":"1 48399U 21038AY  22076.88323347  .00003064  00000-0  22465-3 0  9997","ELEMENT_SET_NO":"999","MEAN_MOTION":"15.06380172","INCLINATION":"53.0568","RCS_SIZE":"LARGE","TIME_SYSTEM":"UTC","LAUNCH_DATE":"2021-05-04","TLE_LINE2":"2 48399  53.0568  23.5268 0001620  49.4252 310.6878 15.06380172 49541"},{"OBJECT_TYPE":"PAYLOAD","CENTER_NAME":"EARTH","DECAY_DATE":null,"OBJECT_ID":"2021-038AZ","MEAN_ELEMENT_THEORY":"SGP4","CLASSIFICATION_TYPE":"U","ELEMENT_SET_NO":"999","REF_FRAME":"TEME","TLE_LINE1":"1 48400U 21038AZ  22076.87954282  .00007615  00000-0  52965-3 0  9991","MEAN_MOTION":"15.06391638","INCLINATION":"53.0550","TLE_LINE2":"2 48400  53.0550  23.5492 0001637  54.0533 306.0607 15.06391638 48330","LAUNCH_DATE":"2021-05-04","RCS_SIZE":"LARGE","TIME_SYSTEM":"UTC","BSTAR":"0.00052965000000","ECCENTRICITY":"0.00016370","PERIAPSIS":"546.106","FILE":"3363151","MEAN_ANOMALY":"306.0607","COUNTRY_CODE":"US","RA_OF_ASC_NODE":"23.5492","ARG_OF_PERICENTER":"54.0533","MEAN_MOTION_DDOT":"0.0000000000000","OBJECT_NAME":"STARLINK-2576","SITE":"AFETR","APOAPSIS":"548.373","SEMIMAJOR_AXIS":"6925.374","NORAD_CAT_ID":"48400","EPHEMERIS_TYPE":"0","PERIOD":"95.593","REV_AT_EPOCH":"4833","GP_ID":"198992013","MEAN_MOTION_DOT":"0.00007615","EPOCH":"2022-03-17T21:06:32.499648"},{"ELEMENT_SET_NO":"999","TLE_LINE1":"1 48401U 21038BA  22076.78274765 -.00002364  00000-0 -13982-3 0  9997","REF_FRAME":"TEME","MEAN_MOTION":"15.06405314","INCLINATION":"53.0570","RCS_SIZE":"LARGE","TIME_SYSTEM":"UTC","TLE_LINE2":"2 48401  53.0570  23.9778 0001863  52.0625 308.0532 15.06405314 48319","LAUNCH_DATE":"2021-05-04","CENTER_NAME":"EARTH","OBJECT_TYPE":"PAYLOAD","MEAN_ELEMENT_THEORY":"SGP4","CLASSIFICATION_TYPE":"U","OBJECT_ID":"2021-038BA","DECAY_DATE":null,"EPHEMERIS_TYPE":"0","PERIOD":"95.592","APOAPSIS":"548.487","SEMIMAJOR_AXIS":"6925.332","NORAD_CAT_ID":"48401","GP_ID":"198992264","MEAN_MOTION_DOT":"-0.00002364","EPOCH":"2022-03-17T18:47:09.396960","REV_AT_EPOCH":"4831","FILE":"3363151","MEAN_ANOMALY":"308.0532","COUNTRY_CODE":"US","RA_OF_ASC_NODE":"23.9778","ARG_OF_PERICENTER":"52.0625","BSTAR":"-0.00013982000000","ECCENTRICITY":"0.00018630","PERIAPSIS":"545.907","SITE":"AFETR","MEAN_MOTION_DDOT":"0.0000000000000","OBJECT_NAME":"STARLINK-2571"},{"MEAN_MOTION":"15.06383159","INCLINATION":"53.0560","ELEMENT_SET_NO":"999","REF_FRAME":"TEME","TLE_LINE1":"1 48402U 21038BB  22076.87584837  .00000492  00000-0  51954-4 0  9992","TIME_SYSTEM":"UTC","RCS_SIZE":"LARGE","TLE_LINE2":"2 48402  53.0560  23.5599 0001758  55.0083 305.1071 15.06383159 48330","LAUNCH_DATE":"2021-05-04","CENTER_NAME":"EARTH","OBJECT_TYPE":"PAYLOAD","MEAN_ELEMENT_THEORY":"SGP4","CLASSIFICATION_TYPE":"U","OBJECT_ID":"2021-038BB","DECAY_DATE":null,"PERIOD":"95.593","EPHEMERIS_TYPE":"0","SEMIMAJOR_AXIS":"6925.400","NORAD_CAT_ID":"48402","APOAPSIS":"548.483","MEAN_MOTION_DOT":"0.00000492","EPOCH":"2022-03-17T21:01:13.299168","GP_ID":"198993015","REV_AT_EPOCH":"4833","COUNTRY_CODE":"US","RA_OF_ASC_NODE":"23.5599","ARG_OF_PERICENTER":"55.0083","FILE":"3363151","MEAN_ANOMALY":"305.1071","BSTAR":"0.00005195400000","ECCENTRICITY":"0.00017580","PERIAPSIS":"546.048","SITE":"AFETR","MEAN_MOTION_DDOT":"0.0000000000000","OBJECT_NAME":"STARLINK-2560"},{"MEAN_ELEMENT_THEORY":"SGP4","CLASSIFICATION_TYPE":"U","OBJECT_ID":"2021-038BC","DECAY_DATE":null,"CENTER_NAME":"EARTH","OBJECT_TYPE":"PAYLOAD","TIME_SYSTEM":"UTC","RCS_SIZE":"LARGE","TLE_LINE2":"2 48403  53.0565  23.5649 0001814  57.5547 302.5617 15.06386635 48336","LAUNCH_DATE":"2021-05-04","INCLINATION":"53.0565","MEAN_MOTION":"15.06386635","ELEMENT_SET_NO":"999","REF_FRAME":"TEME","TLE_LINE1":"1 48403U 21038BC  22076.87218440  .00003209  00000-0  23434-3 0  9997","SITE":"AFETR","MEAN_MOTION_DDOT":"0.0000000000000","OBJECT_NAME":"STARLINK-2561","ARG_OF_PERICENTER":"57.5547","COUNTRY_CODE":"US","RA_OF_ASC_NODE":"23.5649","FILE":"3363151","MEAN_ANOMALY":"302.5617","ECCENTRICITY":"0.00018140","BSTAR":"0.00023434000000","PERIAPSIS":"545.998","MEAN_MOTION_DOT":"0.00003209","EPOCH":"2022-03-17T20:55:56.732160","GP_ID":"198991263","REV_AT_EPOCH":"4833","PERIOD":"95.593","EPHEMERIS_TYPE":"0","NORAD_CAT_ID":"48403","SEMIMAJOR_AXIS":"6925.390","APOAPSIS":"548.511"},{"OBJECT_ID":"2021-038BD","DECAY_DATE":null,"MEAN_ELEMENT_THEORY":"SGP4","CLASSIFICATION_TYPE":"U","OBJECT_TYPE":"PAYLOAD","CENTER_NAME":"EARTH","TLE_LINE2":"2 48404  53.0555  23.5927 0001784  61.6509 298.4659 15.06387432 48330","LAUNCH_DATE":"2021-05-04","TIME_SYSTEM":"UTC","RCS_SIZE":"LARGE","MEAN_MOTION":"15.06387432","INCLINATION":"53.0555","ELEMENT_SET_NO":"999","REF_FRAME":"TEME","TLE_LINE1":"1 48404U 21038BD  22076.86848083  .00000096  00000-0  25359-4 0  9999","MEAN_MOTION_DDOT":"0.0000000000000","OBJECT_NAME":"STARLINK-2593","SITE":"AFETR","ECCENTRICITY":"0.00017840","BSTAR":"0.00002535900000","PERIAPSIS":"546.017","COUNTRY_CODE":"US","RA_OF_ASC_NODE":"23.5927","ARG_OF_PERICENTER":"61.6509","FILE":"3363151","MEAN_ANOMALY":"298.4659","REV_AT_EPOCH":"4833","MEAN_MOTION_DOT":"0.00000096","EPOCH":"2022-03-17T20:50:36.743712","GP_ID":"198991513","NORAD_CAT_ID":"48404","SEMIMAJOR_AXIS":"6925.387","APOAPSIS":"548.488","PERIOD":"95.593","EPHEMERIS_TYPE":"0"},{"FILE":"3363151","MEAN_ANOMALY":"303.3608","ARG_OF_PERICENTER":"56.7553","COUNTRY_CODE":"US","RA_OF_ASC_NODE":"23.6139","BSTAR":"0.00154590000000","ECCENTRICITY":"0.00018000","PERIAPSIS":"545.885","SITE":"AFETR","MEAN_MOTION_DDOT":"0.0000000000000","OBJECT_NAME":"STARLINK-2570","EPHEMERIS_TYPE":"0","PERIOD":"95.590","APOAPSIS":"548.378","SEMIMAJOR_AXIS":"6925.266","NORAD_CAT_ID":"48405","GP_ID":"198992765","MEAN_MOTION_DOT":"0.00022836","EPOCH":"2022-03-17T20:45:18.385632","REV_AT_EPOCH":"4833","CENTER_NAME":"EARTH","OBJECT_TYPE":"PAYLOAD","MEAN_ELEMENT_THEORY":"SGP4","CLASSIFICATION_TYPE":"U","DECAY_DATE":null,"OBJECT_ID":"2021-038BE","ELEMENT_SET_NO":"999","TLE_LINE1":"1 48405U 21038BE  22076.86479613  .00022836  00000-0  15459-2 0  9993","REF_FRAME":"TEME","MEAN_MOTION":"15.06426806","INCLINATION":"53.0563","RCS_SIZE":"LARGE","TIME_SYSTEM":"UTC","TLE_LINE2":"2 48405  53.0563  23.6139 0001800  56.7553 303.3608 15.06426806 48338","LAUNCH_DATE":"2021-05-04"},{"OBJECT_ID":"2021-038BF","DECAY_DATE":null,"MEAN_ELEMENT_THEORY":"SGP4","CLASSIFICATION_TYPE":"U","OBJECT_TYPE":"PAYLOAD","CENTER_NAME":"EARTH","TLE_LINE2":"2 48406  53.0563  23.6206 0001971  49.5751 310.5410 15.06388371 48338","LAUNCH_DATE":"2021-05-04","TIME_SYSTEM":"UTC","RCS_SIZE":"LARGE","MEAN_MOTION":"15.06388371","INCLINATION":"53.0563","ELEMENT_SET_NO":"999","REF_FRAME":"TEME","TLE_LINE1":"1 48406U 21038BF  22076.86113493  .00008398  00000-0  58221-3 0  9997","MEAN_MOTION_DDOT":"0.0000000000000","OBJECT_NAME":"STARLINK-2568","SITE":"AFETR","BSTAR":"0.00058221000000","ECCENTRICITY":"0.00019710","PERIAPSIS":"545.884","COUNTRY_CODE":"US","RA_OF_ASC_NODE":"23.6206","ARG_OF_PERICENTER":"49.5751","FILE":"3363151","MEAN_ANOMALY":"310.5410","REV_AT_EPOCH":"4833","MEAN_MOTION_DOT":"0.00008398","EPOCH":"2022-03-17T20:40:02.057952","GP_ID":"198992515","SEMIMAJOR_AXIS":"6925.384","NORAD_CAT_ID":"48406","APOAPSIS":"548.614","PERIOD":"95.593","EPHEMERIS_TYPE":"0"}];
